NORAD_CAT_ID,OBJECT_NAME,OBJECT_TYPE,EPOCH,MEAN_MOTION,ECCENTRICITY,INCLINATION,RA_OF_ASC_NODE,ARG_OF_PERICENTER,MEAN_ANOMALY,BSTAR,MEAN_MOTION_DOT,MEAN_MOTION_DDOT,TLE_LINE0,TLE_LINE1,TLE_LINE2,SEMIMAJOR_AXIS,PERIOD,APOGEE,PERIGEE,DECAYED
55406.0,STARLINK-5630,PAYLOAD,2023-07-29 14:00:01,15.1374812,0.0003305,70.0006,310.5508,273.9175,245.0299,-0.053219,-0.00892257,0.0,0 STARLINK-5630,1 55406U 23014R   23210.58335648 -.00892257  00000-0 -53219-1 0  9996,2 55406  70.0006 310.5508 0003305 273.9175 245.0299 15.13748120 28195,6902.919,95.128,527.065,522.502,0.0
55406.0,STARLINK-5630,PAYLOAD,2023-07-30 06:00:02,15.12486059,0.0003335,70.0009,308.831,269.5035,279.8445,-0.058561,-0.00943508,0.0,0 STARLINK-5630,1 55406U 23014R   23211.25002315 -.00943508  00000-0 -58561-1 0  9994,2 55406  70.0009 308.8310 0003335 269.5035 279.8445 15.12486059 28296,6906.758,95.207,530.927,526.32,0.0
55406.0,STARLINK-5630,PAYLOAD,2023-07-31 14:00:01,15.09833379,0.0003338,70.0009,305.4018,273.8022,326.9605,-0.058956,-0.00886624,0.0,0 STARLINK-5630,1 55406U 23014R   23212.58334491 -.00886624  00000-0 -58956-1 0  9997,2 55406  70.0009 305.4018 0003338 273.8022 326.9605 15.09833379 28492,6914.846,95.375,539.019,534.403,0.0
55406.0,STARLINK-5630,PAYLOAD,2023-08-01 06:00:00,15.08578869,0.0003327,70.001,303.6925,265.974,355.8018,-0.06605,-0.00954082,0.0,0 STARLINK-5630,1 55406U 23014R   23213.25001157 -.00954082  00000-0 -66050-1 0  9990,2 55406  70.0010 303.6925 0003327 265.9740 355.8018 15.08578869 28597,6918.679,95.454,542.846,538.242,0.0
55406.0,STARLINK-5630,PAYLOAD,2023-08-02 06:00:00,15.06620787,0.000337,70.0009,301.1351,266.2145,21.2475,-0.069617,-0.0095335,0.0,0 STARLINK-5630,1 55406U 23014R   23214.25001157 -.00953350  00000-0 -69617-1 0  9990,2 55406  70.0009 301.1351 0003370 266.2145  21.2475 15.06620787 28745,6924.672,95.578,548.871,544.203,0.0
55406.0,STARLINK-5630,PAYLOAD,2023-08-03 06:00:00,15.04665605,0.0003307,70.0004,298.5854,269.8218,36.2849,-0.07368,-0.00967917,0.0,0 STARLINK-5630,1 55406U 23014R   23215.25001157 -.00967917  00000-0 -73680-1 0  9990,2 55406  70.0004 298.5854 0003307 269.8218  36.2849 15.04665605 28890,6930.669,95.702,554.826,550.242,0.0
55406.0,STARLINK-5630,PAYLOAD,2023-08-03 22:00:00,15.03326934,0.0003248,69.9998,296.8898,270.7555,43.8849,-0.073096,-0.0091878,0.0,0 STARLINK-5630,1 55406U 23014R   23215.91667824 -.00918780  00000-0 -73096-1 0  9997,2 55406  69.9998 296.8898 0003248 270.7555  43.8849 15.03326934 28990,6934.783,95.788,558.901,554.396,0.0
55406.0,STARLINK-5630,PAYLOAD,2023-08-05 06:00:00,15.00749205,0.000333,69.9994,293.5087,266.3371,55.939,-0.081557,-0.00965612,0.0,0 STARLINK-5630,1 55406U 23014R   23217.25001157 -.00965612  00000-0 -81557-1 0  9994,2 55406  69.9994 293.5087 0003330 266.3371  55.9390 15.00749205 29194,6942.722,95.952,566.899,562.275,0.0
55406.0,STARLINK-5630,PAYLOAD,2023-08-05 22:00:01,14.99287372,0.0003351,69.9991,291.8227,270.7635,50.7342,-0.0042813,-0.00052077,0.0,0 STARLINK-5630,1 55406U 23014R   23217.91668981 -.00052077  00000-0 -42813-2 0  9996,2 55406  69.9991 291.8227 0003351 270.7635  50.7342 14.99287372 29293,6947.234,96.046,571.427,566.771,0.0
55406.0,STARLINK-5630,PAYLOAD,2023-08-06 04:00:00,14.99251251,0.0003486,69.9993,291.1915,266.6257,323.7661,0.0036377,0.00044645,0.0,0 STARLINK-5630,1 55406U 23014R   23218.16667824  .00044645  00000-0  36377-2 0  9997,2 55406  69.9993 291.1915 0003486 266.6257 323.7661 14.99251251 29334,6947.345,96.048,571.632,566.789,0.0
55406.0,STARLINK-5630,PAYLOAD,2023-08-06 22:00:00,14.99290661,0.0003576,69.9997,289.2972,270.0908,47.1794,-0.0010723,-0.00013187,0.0,0 STARLINK-5630,1 55406U 23014R   23218.91667824 -.00013187  00000-0 -10723-2 0  9996,2 55406  69.9997 289.2972 0003576 270.0908  47.1794 14.99290661 29445,6947.224,96.045,571.573,566.604,0.0
55406.0,STARLINK-5630,PAYLOAD,2023-08-07 14:00:01,14.992845,0.000366,70.0,287.6135,272.575,41.9764,0.0032203,0.00039517,0.0,0 STARLINK-5630,1 55406U 23014R   23219.58334491  .00039517  00000-0  32203-2 0  9991,2 55406  70.0000 287.6135 0003660 272.5750  41.9764 14.99284500 29547,6947.243,96.046,571.65,566.565,0.0
55406.0,STARLINK-5630,PAYLOAD,2023-08-08 14:00:01,14.99309346,0.000374,70.0001,285.0878,271.5774,39.0337,0.00088969,0.00010812,0.0,0 STARLINK-5630,1 55406U 23014R   23220.58335648  .00010812  00000-0  88969-3 0  9996,2 55406  70.0001 285.0878 0003740 271.5774  39.0337 14.99309346 29694,6947.166,96.044,571.629,566.433,0.0
55406.0,STARLINK-5630,PAYLOAD,2023-08-08 22:13:35,14.99297766,0.0003649,69.9982,284.2231,269.6551,90.4191,0.00019705,2.318e-05,0.0,0 STARLINK-5630,1 55406U 23014R   23220.92610592  .00002318  00000-0  19705-3 0  9992,2 55406  69.9982 284.2231 0003649 269.6551  90.4191 14.99297766 29749,6947.202,96.045,571.602,566.532,0.0
55406.0,STARLINK-5630,PAYLOAD,2023-08-09 15:50:22,14.99307038,0.0003554,69.9984,282.3697,269.2134,90.8618,0.00011553,1.32e-05,0.0,0 STARLINK-5630,1 55406U 23014R   23221.65998548  .00001320  00000-0  11553-3 0  9998,2 55406  69.9984 282.3697 0003554 269.2134  90.8618 14.99307038 29858,6947.173,96.044,571.507,566.569,0.0
55406.0,STARLINK-5630,PAYLOAD,2023-08-10 20:39:40,14.99319093,0.0003575,69.9986,279.3371,268.3366,91.7384,-0.00027245,-3.428e-05,0.0,0 STARLINK-5630,1 55406U 23014R   23222.86088077 -.00003428  00000-0 -27245-3 0  9997,2 55406  69.9986 279.3371 0003575 268.3366  91.7384 14.99319093 30031,6947.136,96.044,571.484,566.517,0.0
55406.0,STARLINK-5630,PAYLOAD,2023-08-11 11:04:19,14.99301162,0.0003459,69.9989,277.8208,266.3052,93.7712,-4.9112e-05,-6.95e-06,0.0,0 STARLINK-5630,1 55406U 23014R   23223.46133665 -.00000695  00000-0 -49112-4 0  9999,2 55406  69.9989 277.8208 0003459 266.3052  93.7712 14.99301162 30122,6947.191,96.045,571.459,566.653,0.0
55406.0,STARLINK-5630,PAYLOAD,2023-08-12 11:05:24,14.99299099,0.000342,69.9987,275.2941,267.1163,92.9605,-1.0806e-05,-2.26e-06,0.0,0 STARLINK-5630,1 55406U 23014R   23224.46208651 -.00000226  00000-0 -10806-4 0  9996,2 55406  69.9987 275.2941 0003420 267.1163  92.9605 14.99299099 30279,6947.198,96.045,571.439,566.687,0.0
55406.0,STARLINK-5630,PAYLOAD,2023-08-13 15:54:42,14.99300849,0.0003606,69.998,272.2607,273.3024,86.7723,2.2329e-05,1.79e-06,0.0,0 STARLINK-5630,1 55406U 23014R   23225.66298786  .00000179  00000-0  22329-4 0  9995,2 55406  69.9980 272.2607 0003606 273.3024  86.7723 14.99300849 30457,6947.192,96.045,571.562,566.552,0.0
55406.0,STARLINK-5630,PAYLOAD,2023-08-14 20:44:00,14.99300127,0.0003157,69.9992,269.2282,280.9706,79.1099,2.4465e-05,2.05e-06,0.0,0 STARLINK-5630,1 55406U 23014R   23226.86389272  .00000205  00000-0  24465-4 0  9992,2 55406  69.9992 269.2282 0003157 280.9706  79.1099 14.99300127 30638,6947.194,96.045,571.253,566.866,0.0
55406.0,STARLINK-5630,PAYLOAD,2023-08-16 01:33:17,14.99301378,0.0003812,69.9983,266.1956,270.7258,89.3464,1.7464e-05,1.2e-06,0.0,0 STARLINK-5630,1 55406U 23014R   23228.06479023  .00000120  00000-0  17464-4 0  9997,2 55406  69.9983 266.1956 0003812 270.7258  89.3464 14.99301378 30817,6947.191,96.045,571.704,566.407,0.0
55406.0,STARLINK-5630,PAYLOAD,2023-08-17 09:34:44,14.99299971,0.0003603,69.9986,262.8253,271.1831,88.8916,-6.153e-06,-1.69e-06,0.0,0 STARLINK-5630,1 55406U 23014R   23229.39912695 -.00000169  00000-0 -61530-5 0  9990,2 55406  69.9986 262.8253 0003603 271.1831  88.8916 14.99299971 31017,6947.195,96.045,571.563,566.557,0.0
55406.0,STARLINK-5630,PAYLOAD,2023-08-18 09:35:49,14.99295445,0.0003531,69.999,260.298,268.6217,91.4538,3.9475e-05,3.89e-06,0.0,0 STARLINK-5630,1 55406U 23014R   23230.39988007  .00000389  00000-0  39475-4 0  9996,2 55406  69.9990 260.2980 0003531 268.6217  91.4538 14.99295445 31168,6947.209,96.045,571.527,566.621,0.0
55406.0,STARLINK-5630,PAYLOAD,2023-08-19 09:36:54,14.99298387,0.0003593,69.999,257.7724,268.9057,91.1691,-2.0646e-05,-3.47e-06,0.0,0 STARLINK-5630,1 55406U 23014R   23231.40063197 -.00000347  00000-0 -20646-4 0  9999,2 55406  69.9990 257.7724 0003593 268.9057  91.1691 14.99298387 31310,6947.2,96.045,571.561,566.569,0.0
55406.0,STARLINK-5630,PAYLOAD,2023-08-20 09:37:59,14.99300233,0.0003646,69.9988,255.2451,268.707,91.3671,1.236e-05,5.7e-07,0.0,0 STARLINK-5630,1 55406U 23014R   23232.40138222  .00000057  00000-0  12360-4 0  9992,2 55406  69.9988 255.2451 0003646 268.7070  91.3671 14.99300233 31469,6947.194,96.045,571.592,566.526,0.0
55406.0,STARLINK-5630,PAYLOAD,2023-08-21 09:39:04,14.99301216,0.0003733,69.9985,252.7173,269.5861,90.4871,3.4947e-05,3.34e-06,0.0,0 STARLINK-5630,1 55406U 23014R   23233.40213256  .00000334  00000-0  34947-4 0  9997,2 55406  69.9985 252.7173 0003733 269.5861  90.4871 14.99301216 31614,6947.191,96.045,571.649,566.463,0.0
55406.0,STARLINK-5630,PAYLOAD,2023-08-22 09:40:09,14.99301617,0.0003687,69.9987,250.1901,269.5342,90.5395,4.7739e-06,-3.6e-07,0.0,0 STARLINK-5630,1 55406U 23014R   23234.40288453 -.00000036  00000-0  47739-5 0  9993,2 55406  69.9987 250.1901 0003687 269.5342  90.5395 14.99301617 31762,6947.19,96.045,571.616,566.493,0.0
55406.0,STARLINK-5630,PAYLOAD,2023-08-23 11:17:18,14.99302177,0.0003648,69.9988,247.495,268.8363,91.2379,-7.7982e-08,-9.5e-07,0.0,0 STARLINK-5630,1 55406U 23014R   23235.47035188 -.00000095  00000-0 -77982-7 0  9997,2 55406  69.9988 247.4950 0003648 268.8363  91.2379 14.99302177 31928,6947.188,96.045,571.587,566.519,0.0
55406.0,STARLINK-5630,PAYLOAD,2023-08-24 09:42:19,14.99299274,0.0003611,69.999,245.1363,267.4326,92.642,-1.2952e-05,-2.52e-06,0.0,0 STARLINK-5630,1 55406U 23014R   23236.40438886 -.00000252  00000-0 -12952-4 0  9991,2 55406  69.9990 245.1363 0003611 267.4326  92.6420 14.99299274 33004,6947.197,96.045,571.571,566.553,0.0
55406.0,STARLINK-5630,PAYLOAD,2023-08-25 01:43:02,14.99300475,0.0003603,69.999,243.4516,266.4646,93.6101,-8.9909e-07,-1.05e-06,0.0,0 STARLINK-5630,1 55406U 23014R   23237.07155569 -.00000105  00000-0 -89909-6 0  9994,2 55406  69.9990 243.4516 0003603 266.4646  93.6101 14.99300475 32169,6947.193,96.045,571.561,566.555,0.0
